SL-3 R/B                
1 19046U 88032B   23051.51532064  .00004407  00000+0  30993-3 0  9999
2 19046  97.4089  44.8691 0037490 111.4784 249.0447 15.05005327883906
SL-16 R/B               
1 19120U 88039B   23051.54252643  .00000219  00000+0  12671-3 0  9994
2 19120  71.0131 261.6786 0024112 249.3858 110.4680 14.19291133800421
COSMOS 1953             
1 19210U 88050A   23051.44943238  .00004640  00000+0  29142-3 0  9996
2 19210  82.5211 179.3258 0019179  37.0845 323.1704 15.08892172868930
SL-8 R/B                
1 19257U 88053B   23051.34481785  .00000491  00000+0  17150-3 0  9999
2 19257  74.0502   2.6293 0019124 100.5276  63.0398 14.37739313816526
COSMOS 1975             
1 19573U 88093A   23051.26985563  .00004817  00000+0  31080-3 0  9992
2 19573  82.5206 135.8534 0014625  76.1966 284.0889 15.07981689850604
SL-14 R/B               
1 19574U 88093B   23051.36612604  .00000913  00000+0  10702-3 0  9998
2 19574  82.5343   5.4455 0022908 115.0300   0.6408 14.83716126835842
SL-16 R/B               
1 19650U 88102B   23051.51633985  .00000194  00000+0  12275-3 0  9994
2 19650  71.0025 333.1650 0016657 265.9975  93.9244 14.15870060769316
INTERCOSMOS 24          
1 20261U 89080A   23051.55285974  .00000968  00000+0  28740-3 0  9998
2 20261  82.6006 107.0822 1199855 350.3700   7.6103 12.56744901526819
SL-14 R/B               
1 20262U 89080C   23051.56185194  .00001014  00000+0  30552-3 0  9990
2 20262  82.5971 167.3312 1235884 206.6453 146.5676 12.49215664521098
DELTA 2 R/B(1)          
1 20303U 89085B   23051.38651172  .00037338  00000+0  66320-3 0  9995
2 20303  35.6361 300.9357 0065127 298.2141  61.2027 15.46789011818691
DELTA 1 R/B             
1 20323U 89089B   23051.54024298  .00000784  00000+0  21024-3 0  9999
2 20323  97.0654  58.0856 0072257  34.1539 326.4276 14.48708377734455
ARIANE 40 R/B           
1 20443U 90005H   23051.42435365  .00000526  00000+0  18661-3 0  9997
2 20443  98.4533 120.8312 0009400 308.0433  51.9905 14.38391330732688
DELTA 2 R/B(1)          
1 20453U 90008B   23051.53339712  .00014473  00000+0  70035-3 0  9991
2 20453  35.6211 227.2356 0250539 220.7066 137.4681 14.94317893756960
COSMOS 2058             
1 20465U 90010A   23051.48951101  .00002873  00000+0  22966-3 0  9994
2 20465  82.4862  51.4407 0016141 136.8501 223.3991 14.99787764774792
SL-14 R/B               
1 20466U 90010B   23051.54549762  .00000704  00000+0  86058-4 0  9992
2 20466  82.5008 231.2722 0020621   7.9494 352.2042 14.81740573763549
SL-14 R/B               
1 20511U 90018B   23051.59921826  .00000857  00000+0  10891-3 0  9991
2 20511  82.5251 181.9908 0018038 145.9816 224.9508 14.80393895757801
HST                     
1 20580U 90037B   23051.43653589  .00005122  00000+0  27985-3 0  9991
2 20580  28.4705 324.2027 0002378 197.0494 313.7753 15.12039074603760
SL-16 R/B               
1 20625U 90046B   23051.54451286  .00000000  00000+0  24665-4 0  9996
2 20625  70.9995 115.1555 0015093 205.4944 154.5436 14.14733206690942
COSMOS 2084             
1 20663U 90055A   23051.53478961  .00003021  00000+0  25327-3 0  9997
2 20663  62.7925 139.4745 0132549  74.5757 286.9934 14.94113971769342
SL-6 R/B(2)             
1 20666U 90055D   23051.41013910  .00002714  00000+0  22921-3 0  9991
2 20666  62.7838  53.7552 0130976  96.2614 265.3418 14.94284777771295
SL-8 R/B                
1 20775U 90078B   23051.25350283  .00010287  00000+0  46162-3 0  9993
2 20775  82.9238 136.0989 0530341  30.4706 332.6196 14.45255799646239
SL-8 R/B                
1 21088U 91006B   23051.58599521  .00000074  00000+0  59384-4 0  9993
2 21088  82.9397 277.9435 0021297 273.1472 145.5617 13.77241457610842
OKEAN-3                 
1 21397U 91039A   23051.29772131  .00003587  00000+0  32747-3 0  9995
2 21397  82.5249 326.5325 0018431 130.1289 230.1550 14.94681374698186
COSMOS 2151             
1 21422U 91042A   23051.51475118  .00002053  00000+0  19321-3 0  9998
2 21422  82.4967  71.2911 0013363 196.8431 163.2347 14.93340838696693
SL-14 R/B               
1 21423U 91042B   23051.43796175  .00000830  00000+0  10632-3 0  9996
2 21423  82.4956 182.7211 0016248 297.1110  62.8445 14.80130840688305
ERS-1                   
1 21574U 91050A   23051.55177572  .00000426  00000+0  15525-3 0  9996
2 21574  98.7308  28.8374 0031626 262.2866  97.4728 14.38040674655671
ARIANE 40 R/B           
1 21610U 91050F   23051.47491730  .00000611  00000+0  20232-3 0  9990
2 21610  98.3513 120.8028 0003167 179.0222 181.0974 14.41244604658551
INTERCOSMOS 25          
1 21819U 91086A   23051.57075398  .00001046  00000+0  20733-3 0  9998
2 21819  82.6007 260.0310 1511766 346.1671  10.1928 12.06476314362144
SL-8 R/B                
1 21876U 92008B   23051.41312523  .00000144  00000+0  13274-3 0  9993
2 21876  82.9293  15.5029 0035045   5.9561 106.1294 13.75736698556334
SL-8 R/B                
1 21938U 92020B   23051.54813223  .00000183  00000+0  17470-3 0  9998
2 21938  82.9266 260.3782 0029509 162.1460 257.3346 13.75328382548112
COSMOS 2219             
1 22219U 92076A   23051.59946997  .00000159  00000+0  10863-3 0  9994
2 22219  71.0614 184.2773 0015906 101.7607 258.5301 14.13741125561041
SL-16 R/B               
1 22220U 92076B   23051.36530253  .00000243  00000+0  14588-3 0  9997
2 22220  71.0023  12.9455 0013407 342.0313 130.8303 14.16537701564154
COSMOS 2221             
1 22236U 92080A   23051.54549715  .00001862  00000+0  19421-3 0  9991
2 22236  82.5041 258.9534 0015442 317.9084  42.0946 14.89178247614749
SL-16 R/B               
1 22285U 92093B   23051.56432672 -.00000206  00000+0 -81370-4 0  9990
2 22285  71.0216 180.4357 0005832 227.6374 132.4255 14.15126306555663
COSMOS 2228             
1 22286U 92094A   23051.54417606  .00002799  00000+0  29030-3 0  9991
2 22286  82.5186 216.3377 0021782  71.2542 289.1037 14.89481604609945
SL-16 R/B               
1 22566U 93016B   23051.36645939 -.00000240  00000+0 -99322-4 0  9992
2 22566  71.0079  32.9525 0012070 227.0518 132.9593 14.15036962544662
COSMOS 2242             
1 22626U 93024A   23051.29050347  .00002298  00000+0  23934-3 0  9991
2 22626  82.5180 245.1356 0019886  72.8196 287.5197 14.89272416614289
SL-16 R/B               
1 22803U 93059B   23051.56780037  .00000183  00000+0  11509-3 0  9998
2 22803  70.9899 197.8759 0015026 108.7755 251.5001 14.16908960521840
ARIANE 40 R/B           
1 22830U 93061H   23051.42489245  .00000400  00000+0  16666-3 0  9994
2 22830  98.6314 118.2991 0010266 335.5939  24.4757 14.31681553534740
COSMOS 2278             
1 23087U 94023A   23051.51225660 -.00000115  00000+0 -35723-4 0  9998
2 23087  71.0557 343.2109 0011325 283.9011  76.0852 14.13919412487434
SL-16 R/B               
1 23088U 94023B   23051.56822977  .00000293  00000+0  17666-3 0  9998
2 23088  70.9983 248.0480 0004300 219.2486 140.8325 14.14746159488649
SL-16 R/B               
1 23343U 94074B   23051.37624866  .00000804  00000+0  12039-3 0  9991
2 23343  97.8583 103.4947 0005751 227.4877 143.4720 14.77271162522761
SL-16 R/B               
1 23405U 94077B   23051.55685526 -.00000145  00000+0 -49923-4 0  9996
2 23405  70.9836 173.7840 0001583 345.5361  14.5716 14.15291508458729
ERS-2                   
1 23560U 95021A   23051.38191920  .00030137  00000+0  94677-3 0  9996
2 23560  98.5125 356.8150 0006074  77.9660 282.2259 15.32942660491190
ARIANE 40+ R/B          
1 23561U 95021B   23051.58651021  .00000491  00000+0  17605-3 0  9998
2 23561  98.5899 114.4578 0006284 220.5442 305.2919 14.38314600459159
SL-16 R/B               
1 23705U 95058B   23051.29547959  .00000139  00000+0  96058-4 0  9999
2 23705  71.0252 357.2374 0012096   5.4630 354.6623 14.15211347410310
SL-16 R/B               
1 24298U 96051B   23051.32509611  .00000135  00000+0  99144-4 0  9993
2 24298  70.8295   7.8013 0015944 328.9299  31.0877 14.12487077364439
ORBVIEW 2 (SEASTAR)     
1 24883U 97037A   23051.58904736  .00000571  00000+0  22100-3 0  9994
2 24883  98.7053 181.1981 0003292  99.8733 260.2823 14.33922085348862
SL-16 R/B               
1 25400U 98043G   23051.54397294  .00000147  00000+0  80743-4 0  9996
2 25400  98.6973 350.2287 0010162  13.6841 346.4612 14.25570226280364
SL-16 R/B               
1 25407U 98045B   23051.56200958 -.00000138  00000+0 -45562-4 0  9999
2 25407  71.0132   1.8735 0009870 279.1372  80.8634 14.15892322269523
ISS (ZARYA)             
1 25544U 98067A   23051.70349537  .00122187  00000+0  21760-2 0  9997
2 25544  51.6386 185.4887 0005033  12.1711 183.3818 15.49195194383729
CZ-4B R/B               
1 25732U 99025C   23051.59924514  .00000122  00000+0  81420-4 0  9997
2 25732  98.8217  96.7625 0036379 298.7647 212.8924 14.17784004230416
OKEAN-O                 
1 25860U 99039A   23051.39364662  .00001087  00000+0  16073-3 0  9996
2 25860  98.1068  97.9733 0001183  66.4754 293.6580 14.77245715269854
SL-16 R/B               
1 25861U 99039B   23051.57452457  .00000912  00000+0  13036-3 0  9999
2 25861  98.1546  87.3700 0014203 253.3691 106.5960 14.79110858272171
DELTA 2 R/B             
1 25876U 99041E   23051.37447704  .00004373  00000+0  77157-3 0  9994
2 25876  51.7660  47.5310 0526945 317.9714  38.1893 14.05790585206080
HELIOS 1B               
1 25977U 99064A   23051.57793139  .00001206  00000+0  15501-3 0  9996
2 25977  98.3058 260.6614 0002400  78.1422 282.0059 14.83135412520050
TERRA                   
1 25994U 99068A   23051.56512390  .00000773  00000+0  17404-3 0  9998
2 25994  98.1081 122.7802 0002799  84.3515  48.3342 14.59047087232650
SL-16 R/B               
1 26070U 00006B   23051.57220797  .00000076  00000+0  63315-4 0  9995
2 26070  71.0021 277.7825 0014346  73.8404 286.4296 14.15527111191028
TITAN 4B R/B            
1 26474U 00047B   23051.54256691  .00002865  00000+0  24512-3 0  9990
2 26474  67.9927 261.1802 0056042 206.2607 153.5693 14.97940484225589
